[{"OBJECT_NAME":"LARES","OBJECT_ID":"2012-006A","EPOCH":"2026-03-09T21:40:03.905472","MEAN_MOTION":12.54932279,"ECCENTRICITY":0.00073453,"INCLINATION":69.4885,"RA_OF_ASC_NODE":101.835,"ARG_OF_PERICENTER":150.069,"MEAN_ANOMALY":210.0758,"EPHEMERIS_TYPE":0,"CLASSIFICATION_TYPE":"U","NORAD_CAT_ID":38077,"ELEMENT_SET_NO":999,"REV_AT_EPOCH":64461,"BSTAR":-7.5970423e-5,"MEAN_MOTION_DOT":-5.1e-7,"MEAN_MOTION_DDOT":0},{"OBJECT_NAME":"DELTA 1 DEB","OBJECT_ID":"1973-086JF","EPOCH":"2026-03-09T09:47:04.422048","MEAN_MOTION":12.46364118,"ECCENTRICITY":0.00963494,"INCLINATION":101.5355,"RA_OF_ASC_NODE":313.0698,"ARG_OF_PERICENTER":354.9157,"MEAN_ANOMALY":5.0926,"EPHEMERIS_TYPE":0,"CLASSIFICATION_TYPE":"U","NORAD_CAT_ID":47114,"ELEMENT_SET_NO":999,"REV_AT_EPOCH":55398,"BSTAR":0.00023603552,"MEAN_MOTION_DOT":-8.0e-8,"MEAN_MOTION_DDOT":0}]
